SCD 1                   
1 22490U 93009B   26198.66387565  .00000293  00000+0  29377-4 0  9995
2 22490  24.9706  19.3987 0042083 100.5468 303.6457 14.46129174765538
TECHSAT 1B (GO-32)      
1 25397U 98043D   26198.40930573  .00000005  00000+0  22342-4 0  9998
2 25397  99.0087 191.9327 0002250 111.4345 248.7073 14.24433604455636
SCD 2                   
1 25504U 98060A   26198.48778264  .00000265  00000+0  23135-4 0  9991
2 25504  24.9942 245.2984 0017010  83.4153  51.9653 14.45535234464712
DLR-TUBSAT              
1 25757U 99029B   26198.26062588 -.00000003  00000+0  11152-4 0  9995
2 25757  98.6712 194.7566 0012994 257.8987 102.0752 14.52433472437613
TERRA                   
1 25994U 99068A   26198.70576780  .00000157  00000+0  40985-4 0  9999
2 25994  97.9440 247.0394 0003505 117.7508 347.4287 14.61124752414068
MAROC-TUBSAT            
1 27004U 01056D   26198.44357691 -.00000043  00000+0  38696-5 0  9994
2 27004  99.8100  15.8757 0020572  66.5443 323.2177 13.70263593230334
AQUA                    
1 27424U 02022A   26198.71957919  .00000324  00000+0  74315-4 0  9991
2 27424  98.4298 168.6167 0001235 101.5244   1.6009 14.62130477287732
SHIYAN-1 (SY-1)         
1 28220U 04012A   26198.18696479  .00007510  00000+0  22745-3 0  9992
2 28220  97.8684 278.2199 0004117 265.4291  94.6480 15.34483845215697
AURA                    
1 28376U 04026A   26198.66081455  .00000332  00000+0  76838-4 0  9992
2 28376  98.3431 155.3700 0001352  93.5862 266.5493 14.61369692170663
IRS-P5 (CARTOSAT-1)     
1 28649U 05017A   26198.07504432  .00000742  00000+0  80128-4 0  9998
2 28649  97.5306 219.7839 0001284  50.7607 309.3726 14.91119788148271
SINAH 1                 
1 28893U 05043D   26198.66996522  .00000119  00000+0  31909-4 0  9999
2 28893  98.2898 333.1776 0014570 175.7982 184.3345 14.64176311104986
RESURS-DK 1             
1 29228U 06021A   26198.57387977  .00000854  00000+0  53922-4 0  9992
2 29228  69.9305 260.8870 0007239 268.3876  91.6461 15.13323561107172
ARIRANG-2 (KOMPSAT-2)   
1 29268U 06031A   26198.75215666  .00000317  00000+0  67929-4 0  9998
2 29268  97.8310  21.7207 0014023 342.6547  27.9419 14.64677015 65955
LAPAN-TUBSAT            
1 29709U 07001A   26198.69083639  .00000501  00000+0  63901-4 0  9993
2 29709  98.1348 198.6048 0013628  86.5872 273.6902 14.85978140 55684
HAIYANG-1B              
1 31113U 07010A   26197.93073682  .00000029  00000+0  26942-4 0  9997
2 31113  98.3516 178.6253 0014687 111.0193 249.2564 14.31033589  4897
COSMO-SKYMED 1          
1 31598U 07023A   26198.67814927  .00001497  00000+0  13454-3 0  9998
2 31598  97.8848  30.7921 0001627 101.4299 258.7105 14.97226809 34357
TERRASAR-X              
1 31698U 07026A   26188.47915537  .00000240  00000+0  14624-4 0  9994
2 31698  97.4461 195.8972 0001878  86.9540 273.1909 15.19153986 56300
WORLDVIEW-1 (WV-1)      
1 32060U 07041A   26198.68354552  .00002986  00000+0  12412-3 0  9994
2 32060  97.3908 318.0003 0001765 194.9255 165.1931 15.24574284 47524
YAOGAN-3                
1 32289U 07055A   26198.73303668  .00000256  00000+0  31598-4 0  9995
2 32289  97.8140 228.3091 0001511  76.2340 283.9046 14.90885521 10422
CARTOSAT-2A             
1 32783U 08021A   26198.68862360  .00000301  00000+0  47143-4 0  9995
2 32783  97.7611 246.3540 0012308  19.5441 340.6240 14.79277817983314
HUANJING 1A (HJ-1A)     
1 33320U 08041A   26198.71026147  .00000704  00000+0  90347-4 0  9995
2 33320  97.6698 183.3720 0020143  41.9651 318.3103 14.84051716962933
HUANJING 1B (HJ-1B)     
1 33321U 08041B   26198.69336300 -.00000112  00000+0 -71788-5 0  9992
2 33321  97.6535 186.4348 0037984  83.3647 277.1888 14.83366266962930
GEOEYE 1                
1 33331U 08042A   26198.68898426  .00000154  00000+0  37830-4 0  9998
2 33331  98.1326 272.2556 0003765 337.9338  22.1702 14.64650420954611
THEOS                   
1 33396U 08049A   26198.68754833  .00000022  00000+0  30085-4 0  9998
2 33396  98.5553 254.9784 0001104  88.4270 271.7034 14.20137381922293
COSMO-SKYMED 3          
1 33412U 08054A   26198.68563023  .00002412  00000+0  16453-3 0  9999
2 33412  97.8245  57.7601 0015976 158.3569 201.8337 15.07126625961534
YAOGAN-4                
1 33446U 08061A   26198.52478976  .00000438  00000+0  60171-4 0  9992
2 33446  97.9303 131.8124 0013632 337.8132  22.2490 14.83253518950165
GOSAT (IBUKI)           
1 33492U 09002A   26198.27487925  .00000285  00000+0  58810-4 0  9992
2 33492  98.0915 308.9825 0001129  88.9668 271.1666 14.67541047935878
DEIMOS-1                
1 35681U 09041A   26198.57255623 -.00000027  00000+0  30426-5 0  9997
2 35681  97.7435 354.4881 0002792  89.4015 270.7514 14.75264386911362
DUBAISAT-1              
1 35682U 09041B   26198.61291147  .00000344  00000+0  58492-4 0  9997
2 35682  98.0088 331.5440 0009720 340.5543  19.5293 14.75168609909588
